SPACEMOBILE-008         
1 69589U 26139A   26193.84053977 -.00000102  00000+0  11217-4 0  9991
2 69589  52.9944 146.0977 0004970  50.9222 309.2211 15.12800321  3864
SPACEMOBILE-009         
1 69590U 26139B   26193.90840601 -.00000102  00000+0  11260-4 0  9996
2 69590  52.9936 145.8037 0005200  46.7752 313.3672 15.12693667  3870
SPACEMOBILE-010         
1 69591U 26139C   26193.97734236 -.00000049  00000+0  14261-4 0  9994
2 69591  52.9943 145.5242 0005131  38.7301 321.4057 15.12525132  3898
