OBJECT_NAME,OBJECT_ID,EPOCH,MEAN_MOTION,ECCENTRICITY,INCLINATION,RA_OF_ASC_NODE,ARG_OF_PERICENTER,MEAN_ANOMALY,EPHEMERIS_TYPE,CLASSIFICATION_TYPE,NORAD_CAT_ID,ELEMENT_SET_NO,REV_AT_EPOCH,BSTAR,MEAN_MOTION_DOT,MEAN_MOTION_DDOT
SPACEMOBILE-008,2026-139A,2026-07-12T20:10:22.636128,15.12800321,.000497,52.9944,146.0977,50.9222,309.2211,0,U,69589,999,386,.11217E-4,-.102E-5,0
SPACEMOBILE-009,2026-139B,2026-07-12T21:48:06.279264,15.12693667,.00052,52.9936,145.8037,46.7752,313.3672,0,U,69590,999,387,.1126E-4,-.102E-5,0
SPACEMOBILE-010,2026-139C,2026-07-12T23:27:22.379904,15.12525132,.0005131,52.9943,145.5242,38.7301,321.4057,0,U,69591,999,389,.14261E-4,-.49E-6,0
